satname,norad_id,inclination_deg,eccentricity,mean_motion_rev_per_day,perigee_km,apogee_km,l1,l2
STARLINK-1008,44714,53.157,0.0001281,15.31035791,471.8430885975404,473.59827833604413,1 44714U 19074B   26057.47845235  .00002083  00000+0  80424-4 0  9993,2 44714  53.1570 230.8989 0001281  82.8761 277.2386 15.31035791347156
STARLINK-1012,44718,53.161,9.75e-05,15.30187039,474.5855633022784,475.92197450221465,1 44718U 19074F   26057.45271743  .00000730  00000+0  36770-4 0  9994,2 44718  53.1610 231.0004 0000975 117.1987 242.9114 15.30187039347146
STARLINK-1017,44723,53.0509,0.0002642,15.22884552,495.32861980762664,498.9615188530606,1 44723U 19074L   26056.86627907  .00046917  00000+0  19777-2 0  9994,2 44723  53.0509 225.9570 0002642 131.4666 228.6557 15.22884552347163
STARLINK-1019,44724,53.0421,0.0004364,15.78307089,332.3071951426127,338.1666278925841,1 44724U 19074M   26057.91668981  .00083792  00000+0  47603-3 0  9991,2 44724  53.0421 190.7592 0004364 164.1154 165.5934 15.78307089  6030
STARLINK-1020,44725,53.1461,0.0001801,15.27310948,482.61900805172627,485.0906975170992,1 44725U 19074N   26057.91668981  .01064922  00000+0  35948-1 0  9994,2 44725  53.1461 253.8674 0001801  88.7100  59.0569 15.27310948  5844
STARLINK-1031,44736,53.0402,0.0002713,15.85961165,311.80422315862506,315.4351703422817,1 44736U 19074Z   26057.91668981  .00168839  00000+0  66233-3 0  9990,2 44736  53.0402 174.7733 0002713 296.0785 286.6284 15.85961165  5774
STARLINK-1036,44741,53.0509,0.0004264,15.53209433,404.4692492932645,410.2559233404754,1 44741U 19074AE  26056.91165712  .00102180  00000+0  15845-2 0  9998,2 44741  53.0509 245.4491 0004264 177.1011 183.0023 15.53209433346899
STARLINK-1039,44744,53.0438,0.0006022,15.20450285,500.33669618369913,508.62612179548705,1 44744U 19074AH  26056.98507116  .00035567  00000+0  16157-2 0  9997,2 44744  53.0438 268.8472 0006022 137.3565 222.7898 15.20450285346570
STARLINK-1042,44747,53.0436,0.0002182,15.49181863,417.63498352736406,420.6013056724669,1 44747U 19074AL  26057.62385112  .00023926  00000+0  43882-3 0  9994,2 44747  53.0436 147.8605 0002182 110.6287 249.4955 15.49181863348355
STARLINK-1043,44748,53.0517,0.0002659,15.52809903,406.7218786904559,410.33102631449765,1 44748U 19074AM  26057.52617252  .00029579  00000+0  47500-3 0  9998,2 44748  53.0517 248.3243 0002659  91.6186 268.5127 15.52809903346915
STARLINK-1046,44751,53.053,0.0007381,15.42627763,433.3260974911118,443.3886064534927,1 44751U 19074AQ  26057.59983133  .00032509  00000+0  74103-3 0  9999,2 44751  53.0530 263.5114 0007381 138.2498 221.9071 15.42627763346700
STARLINK-1047,44752,53.0676,0.0003509,15.32274262,466.6260143035797,471.43135518113104,1 44752U 19074AR  26057.53952784  .00012977  00000+0  42161-3 0  9998,2 44752  53.0676 198.0838 0003509 165.4180 194.6923 15.32274262347631
STARLINK-1048,44753,53.0548,0.0003702,15.50908477,411.557845657866,416.58679743954144,1 44753U 19074AS  26057.44680263  .00034157  00000+0  58542-3 0  9993,2 44753  53.0548 222.9676 0003702 163.3816 196.7315 15.50908477347253
STARLINK-1053,44758,53.0292,0.0006322,15.86437215,308.0512620531699,316.5106265019149,1 44758U 19074AX  26057.91668981  .00201310  00000+0  76746-3 0  9996,2 44758  53.0292 138.2470 0006322  18.3898 304.8577 15.86437215  5771
STARLINK-1063,44768,53.1587,0.0001209,15.29346434,476.9359703931241,478.5937274601947,1 44768U 19074BH  26057.58345695 -.00515565  00000+0 -19129-1 0  9996,2 44768  53.1587 270.9846 0001209 145.2557 214.8523 15.29346434346613
STARLINK-1067,44771,53.0521,5.87e-05,15.54896169,402.05644934881366,402.8524907873998,1 44771U 19074BL  26057.91668981  .00120945  00000+0  17588-2 0  9993,2 44771  53.0521 256.3518 0000587 230.9278 193.2607 15.54896169  5852
STARLINK-1068,44772,53.0497,0.0003636,15.60738958,383.06206035473406,387.9805926897807,1 44772U 19074BM  26057.81061662  .00140776  00000+0  16394-2 0  9994,2 44772  53.0497 233.0526 0003636 180.6825 179.4183 15.60738958347147
STARLINK-1112,44925,53.0372,0.000208,16.00674906,271.1652453474453,273.931930552033,1 44925U 20001M   26057.77740369  .00464990  10532-3  85726-3 0  9997,2 44925  53.0372 297.7185 0002080 207.3301 152.7620 16.00674906339570
STARLINK-1114,44927,53.051,0.000846,15.48140142,416.4139283663253,427.9200427098549,1 44927U 20001P   26057.84074916  .00084648  00000+0  15747-2 0  9993,2 44927  53.0510  21.3581 0008460  74.6264 285.5677 15.48140142338418
STARLINK-1123,44930,53.0997,0.0002348,15.16949233,513.4486687130993,516.6857174021598,1 44930U 20001S   26057.91668981  .01538743  00000+0  70071-1 0  9997,2 44930  53.0997  34.7795 0002348  89.9680  63.5028 15.16949233  5852
STARLINK-1094,44941,53.1614,0.0001337,15.30185535,474.34196069600785,476.1745585884355,1 44941U 20001AD  26057.25339876 -.00000659  00000+0 -10123-4 0  9990,2 44941  53.1614  12.6829 0001337  90.3971 269.7183 15.30185535338483
STARLINK-1122,44949,53.1622,0.0001602,15.30199061,474.1199656548297,476.3157805561741,1 44949U 20001AM  26057.27972944  .00002163  00000+0  85130-4 0  9999,2 44949  53.1622  12.6053 0001602  81.6952 278.4230 15.30199061338485
STARLINK-1080,44961,53.0535,0.0008905,15.45109769,424.99197078471116,437.1191427282938,1 44961U 20001AZ  26057.49816377  .00079927  00000+0  16519-2 0  9999,2 44961  53.0535 341.5853 0008905  78.7247 281.4759 15.45109769338943
STARLINK-1090,44968,53.0553,0.0001581,15.06400929,546.1138135316814,548.3036078454015,1 44968U 20001BG  26057.54761265  .00001059  00000+0  89963-4 0  9993,2 44968  53.0553 356.6369 0001581  92.6498 267.4672 15.06400929338739
STARLINK-1132,45044,53.1563,0.0005252,15.42229915,435.948960678661,443.1102376744366,1 45044U 20006A   26057.71081740  .00066783  00000+0  15266-2 0  9994,2 45044  53.1563 305.9533 0005252 145.3803 214.7546 15.42229915335233
STARLINK-1131,45047,53.1595,0.0001383,15.30219139,474.2101137227228,476.10573509881397,1 45047U 20006D   26057.75841642  .00007558  00000+0  26690-3 0  9995,2 45047  53.1595 331.7542 0001383  82.9695 277.1463 15.30219139334878
STARLINK-1134,45048,53.0344,0.0010193,15.42207536,432.64623841018056,446.5448679931378,1 45048U 20006E   26057.09641644  .00016229  00000+0  38043-3 0  9993,2 45048  53.0344 293.3730 0010193 132.5662 227.6204 15.42207536335355
STARLINK-1156,45054,53.1587,0.0001461,15.30198129,474.2193803402406,476.2219314472932,1 45054U 20006L   26057.78474986  .00002285  00000+0  89268-4 0  9992,2 45054  53.1587 331.6470 0001461 105.3531 254.7631 15.30198129334875
STARLINK-1159,45057,53.0473,0.0005764,15.78495197,330.8342680601918,338.57283064548574,1 45057U 20006P   26057.37191141  .00124742  00000+0  69724-3 0  9996,2 45057  53.0473 291.5734 0005764 108.3100 251.8548 15.78495197335405
STARLINK-1166,45060,53.054,0.0006173,15.43774428,430.7758169751487,439.18729314322445,1 45060U 20006S   26057.83467741  .00033321  00000+0  73075-3 0  9999,2 45060  53.0540 324.3346 0006173 105.2301 254.9387 15.43774428334988
STARLINK-1169,45061,53.1624,5.74e-05,15.30202828,474.81324360997405,475.60000745818525,1 45061U 20006T   26057.75208831  .00002625  00000+0  10071-3 0  9994,2 45061  53.1624 331.7993 0000574 101.8696 258.2369 15.30202828334872
STARLINK-1171,45062,53.047,0.0001846,15.55325231,399.95592076540834,402.4588547133626,1 45062U 20006U   26057.41372851  .00114924  00000+0  16467-2 0  9992,2 45062  53.0470 304.1438 0001846 351.2814   8.8163 15.55325231335238
STARLINK-1133,45064,53.1598,0.0001512,15.3019607,474.1905751089289,476.2630323231724,1 45064U 20006W   26057.10473378  .00003884  00000+0  14321-3 0  9996,2 45064  53.1598 311.6131 0001512  78.0907 282.0264 15.30196070335106
STARLINK-1167,45071,53.1605,0.0001324,15.29363321,476.8066662188785,478.62209566455294,1 45071U 20006AD  26057.71447752  .00001985  00000+0  81077-4 0  9991,2 45071  53.1605 308.7665 0001324  92.8173 267.2979 15.29363321335192
STARLINK-1168,45072,53.1583,0.0001606,15.29358943,476.62641297981554,478.8285166459136,1 45072U 20006AE  26057.72427627  .00000407  00000+0  26458-4 0  9992,2 45072  53.1583 308.7815 0001606  90.7800 269.3385 15.29358943335190
STARLINK-1172,45074,53.1605,0.0002071,15.30173006,473.87632391658553,476.7150157284259,1 45074U 20006AG  26056.10185368 -.00003523  00000+0 -10693-3 0  9995,2 45074  53.1605 316.2954 0002071  87.4739 272.6499 15.30173006334948
STARLINK-1153,45080,53.1612,0.0001292,15.29355187,476.8529107166396,478.62446899489896,1 45080U 20006AN  26057.11073820 -.00000097  00000+0  89667-5 0  9994,2 45080  53.1612 311.4820 0001292  84.2837 275.8311 15.29355187335107
STARLINK-1151,45081,53.0504,0.0011721,15.56746689,389.13873623234394,405.02119984882484,1 45081U 20006AP  26057.63727679  .00056636  00000+0  77695-3 0  9995,2 45081  53.0504 293.8618 0011721 109.8964 250.3311 15.56746689335398
STARLINK-1185,45087,53.1519,0.0001889,15.29383626,476.3586403904992,478.9487581166768,1 45087U 20006AV  26057.67234224  .00028931  00000+0  10101-2 0  9999,2 45087  53.1519 293.5500 0001889 103.0762 257.0450 15.29383626335402
STARLINK-1183,45088,53.1597,0.0001475,15.30194634,474.22021958143887,476.24196316839334,1 45088U 20006AW  26057.91668981 -.00001987  00000+0 -54996-4 0  9994,2 45088  53.1597 292.6221 0001475  84.9369 308.9845 15.30194634  5724
STARLINK-1152,45096,53.0396,0.0006358,15.3685792,451.0627545462712,459.75228976064045,1 45096U 20006BE  26057.54854561  .00062380  00000+0  17019-2 0  9998,2 45096  53.0396 258.9726 0006358 152.6476 207.4861 15.36857920335874
STARLINK-1184,45098,53.0533,0.0006245,15.09868632,532.2828036689634,540.9193115028893,1 45098U 20006BG  26057.67871291  .00012283  00000+0  76645-3 0  9991,2 45098  53.0533 295.1248 0006245 104.5360 255.6323 15.09868632335379
STARLINK-1193,45100,53.0522,0.0004849,15.50191688,412.871357112489,419.46047207906395,1 45100U 20006BJ  26057.65142672  .00082057  00000+0  14224-2 0  9997,2 45100  53.0522 283.6965 0004849 160.2363 199.8834 15.50191688335539
